[{"OBJECT_NAME":"JILIN-1 GAOFEN 03D47","OBJECT_ID":"2022-167L","EPOCH":"2026-03-09T22:56:46.924224","MEAN_MOTION":15.31686941,"ECCENTRICITY":0.00089304,"INCLINATION":97.6835,"RA_OF_ASC_NODE":234.6581,"ARG_OF_PERICENTER":110.4031,"MEAN_ANOMALY":249.8169,"EPHEMERIS_TYPE":0,"CLASSIFICATION_TYPE":"U","NORAD_CAT_ID":54692,"ELEMENT_SET_NO":999,"REV_AT_EPOCH":18014,"BSTAR":0.00047294748,"MEAN_MOTION_DOT":0.00014417,"MEAN_MOTION_DDOT":0},{"OBJECT_NAME":"STARLINK-34259","OBJECT_ID":"2025-190T","EPOCH":"2026-03-09T13:25:31.029024","MEAN_MOTION":15.30187783,"ECCENTRICITY":0.0001178,"INCLINATION":53.1573,"RA_OF_ASC_NODE":168.8942,"ARG_OF_PERICENTER":78.0466,"MEAN_ANOMALY":282.0667,"EPHEMERIS_TYPE":0,"CLASSIFICATION_TYPE":"U","NORAD_CAT_ID":65368,"ELEMENT_SET_NO":999,"REV_AT_EPOCH":2973,"BSTAR":0.00090949,"MEAN_MOTION_DOT":0.00026664,"MEAN_MOTION_DDOT":0}]
